CZ-2D R/B               
1 53878U 22115B   22285.96315195  .00001567  00000+0  25348-3 0  9993
2 53878  98.5458 285.6578 0123554 334.4791  25.0351 14.67968387  3237
SOYUZ-MS 22             
1 53879U 22116A   22285.53886391  .00016775  00000+0  30151-3 0  9994
2 53879  51.6417 115.1889 0003237 294.0942 159.9238 15.49976024363383
2022-118A               
1 53884U 22118A   22285.82281806  .00007572  00000+0  32387-3 0  9992
2 53884  97.5207 292.3532 0014552 192.4091 270.5793 15.23025337  2724
2022-118B               
1 53885U 22118B   22285.81498606  .00010212  00000+0  42728-3 0  9995
2 53885  97.5208 292.3631 0011704 198.9537 263.0404 15.23710641  2712
STARLINK-5028           
1 53886U 22119A   22285.91667824  .00058134  00000+0  41632-3 0  9996
2 53886  53.2175 164.1573 0001209  91.2334 300.8766 15.73168645  1306
STARLINK-5029           
1 53887U 22119B   22285.91667824  .00064825  00000+0  46344-3 0  9996
2 53887  53.2174 164.1530 0001088  74.2641 319.6358 15.73164824  1306
STARLINK-5034           
1 53888U 22119C   22285.91667824 -.00049043  00000+0 -34652-3 0  9993
2 53888  53.2175 164.1563 0001899 301.5674  91.1087 15.73233728  1307
STARLINK-5031           
1 53889U 22119D   22285.91667824 -.00002053  00000+0 -10201-4 0  9999
2 53889  53.2175 164.1525 0001821  66.4327 326.8537 15.73205163  1303
STARLINK-5050           
1 53890U 22119E   22285.91667824 -.01195464  00000+0 -71105-2 0  9999
2 53890  53.2174 163.0400 0001164  89.5819 138.5193 15.79936043  1306
STARLINK-5041           
1 53891U 22119F   22285.91667824  .00014144  00000+0  10504-3 0  9999
2 53891  53.2174 164.1509 0000852  80.5312 314.5472 15.73195062  1309
STARLINK-5046           
1 53892U 22119G   22285.91667824 -.00027697  00000+0 -19337-3 0  9992
2 53892  53.2177 164.1454 0002139  18.2647  19.7825 15.73220511  1305
STARLINK-5052           
1 53893U 22119H   22285.91667824 -.00012938  00000+0 -87862-4 0  9994
2 53893  53.2174 164.1472 0001305 135.6107 261.2486 15.73211494  1309
STARLINK-5043           
1 53894U 22119J   22285.91667824 -.00044140  00000+0 -31133-3 0  9994
2 53894  53.2174 164.1503 0001030  80.7547 314.9035 15.73230633  1300
STARLINK-5032           
1 53895U 22119K   22285.91667824 -.00021669  00000+0 -15027-3 0  9990
2 53895  53.2175 164.1461 0000899  81.1203 316.3325 15.73216860  1305
STARLINK-5037           
1 53896U 22119L   22285.91667824 -.00028382  00000+0 -19816-3 0  9990
2 53896  53.2175 164.1446 0004294 284.8180 113.8248 15.73221155  1305
STARLINK-5035           
1 53897U 22119M   22285.91667824 -.00038198  00000+0 -26866-3 0  9990
2 53897  53.2175 164.1488 0001517 129.6822 266.5736 15.73227084  1301
STARLINK-5044           
1 53898U 22119N   22285.91667824 -.00070311  00000+0 -49972-3 0  9997
2 53898  53.2175 164.1410 0001533  34.8776   5.5418 15.73246805  1300
STARLINK-5042           
1 53899U 22119P   22285.91667824  .00003944  00000+0  32504-4 0  9998
2 53899  53.2175 164.1418 0001507  45.5342 354.3102 15.73201207  1300
STARLINK-5045           
1 53900U 22119Q   22285.91667824 -.00011677  00000+0 -78849-4 0  9997
2 53900  53.2177 164.1384 0001886  37.7964   3.8319 15.73210905  1301
STARLINK-5024           
1 53901U 22119R   22285.91667824 -.00002047  00000+0 -10170-4 0  9992
2 53901  53.2175 164.1411 0001090  96.1988 303.0486 15.73205163  1303
STARLINK-5021           
1 53902U 22119S   22284.16667824  .00300409  00000+0  20742-2 0  9994
2 53902  53.2172 172.7910 0001093  89.3094 118.4046 15.73143355  1309
STARLINK-5022           
1 53903U 22119T   22285.91667824 -.00011966  00000+0 -80926-4 0  9990
2 53903  53.2175 164.1395 0001022  76.7180 324.3140 15.73211009  1308
STARLINK-4787           
1 53904U 22119U   22285.91667824 -.00067459  00000+0 -47917-3 0  9991
2 53904  53.2174 164.1372 0001084  76.8330 325.3758 15.73245074  1304
STARLINK-5003           
1 53905U 22119V   22285.91667824  .00012394  00000+0  92611-4 0  9990
2 53905  53.2174 164.1331 0001277  85.9816 318.0382 15.73196099  1308
STARLINK-5054           
1 53906U 22119W   22285.91667824  .00067767  00000+0  48412-3 0  9994
2 53906  53.2175 164.1302 0001872  28.2958  17.5272 15.73163014  1306
STARLINK-5063           
1 53907U 22119X   22285.91667824 -.00013725  00000+0 -93470-4 0  9997
2 53907  53.2175 164.1360 0001749  30.5071  12.3127 15.73212105  1304
STARLINK-5057           
1 53908U 22119Y   22285.91667824 -.00032835  00000+0 -23022-3 0  9996
2 53908  53.2176 164.1293 0001044  93.7596 312.6316 15.73223793  3260
STARLINK-4796           
1 53909U 22119Z   22285.91667824 -.00026170  00000+0 -18247-3 0  9995
2 53909  53.2175 164.1346 0001275  53.7881 349.6245 15.73219669  1309
STARLINK-5056           
1 53910U 22119AA  22285.91667824 -.00000993  00000+0 -26684-5 0  9998
2 53910  53.2174 164.1254 0000600  82.1050 326.0837 15.73204255  1304
STARLINK-5048           
1 53911U 22119AB  22285.91667824 -.00017429  00000+0 -11995-3 0  9998
2 53911  53.2175 164.1309 0001173  91.1727 314.0308 15.73214284  1307
STARLINK-5059           
1 53912U 22119AC  22285.91667824 -.00055860  00000+0 -39558-3 0  9995
2 53912  53.2176 164.1269 0001409  55.0764 352.5007 15.73237731  1301
STARLINK-5053           
1 53913U 22119AD  22285.91667824 -.00062048  00000+0 -44017-3 0  9998
2 53913  53.2175 164.1227 0000978  88.3684 320.9950 15.73241708  1300
STARLINK-5040           
1 53914U 22119AE  22285.91667824 -.00056679  00000+0 -40150-3 0  9996
2 53914  53.2176 164.1218 0000967  75.6490 334.3125 15.73238161  1306
STARLINK-5017           
1 53915U 22119AF  22285.91667824  .00010467  00000+0  78908-4 0  9993
2 53915  53.2175 164.1276 0000966  88.3321 318.6673 15.73197483  1307
STARLINK-5051           
1 53916U 22119AG  22285.91667824 -.00011401  00000+0 -76888-4 0  9990
2 53916  53.2177 164.0443 0001460 129.6360 331.2688 15.73210625  1308
STARLINK-5036           
1 53917U 22119AH  22285.91667824 -.00048408  00000+0 -34201-3 0  9990
2 53917  53.2176 164.1243 0000779  79.1486 329.6226 15.73233296  1305
STARLINK-5012           
1 53918U 22119AJ  22285.91667824 -.00001721  00000+0 -78542-5 0  9996
2 53918  53.2175 164.1179 0000903  92.0591 319.1107 15.73204897  1300
STARLINK-5023           
1 53919U 22119AK  22285.91667824 -.00057103  00000+0 -40455-3 0  9992
2 53919  53.2175 164.1179 0000992  72.7971 338.9525 15.73238464  1306
STARLINK-5025           
1 53920U 22119AL  22285.91667824 -.00039198  00000+0 -27585-3 0  9997
2 53920  53.2175 164.1135 0001069  79.3260 334.8128 15.73227650  1309
STARLINK-5005           
1 53921U 22119AM  22285.91667824  .00427328  94677-4  57788-3 0  9998
2 53921  53.2207 162.1595 0037033 113.4412 178.0535 16.04384457  1307
STARLINK-5002           
1 53922U 22119AN  22285.91667824 -.00000164  00000+0  32448-5 0  9995
2 53922  53.2175 164.1125 0001035  92.0355 322.7106 15.73203754  1301
STARLINK-5004           
1 53923U 22119AP  22285.91667824  .00007557  00000+0  58219-4 0  9991
2 53923  53.2175 164.1147 0001454  78.5894 334.9665 15.73199037  1301
STARLINK-5001           
1 53924U 22119AQ  22285.91667824 -.00015540  00000+0 -10646-3 0  9996
2 53924  53.2175 164.1089 0000865  71.8400 344.6900 15.73213155  1309
STARLINK-5011           
1 53925U 22119AR  22285.91667824 -.00040212  00000+0 -28312-3 0  9990
2 53925  53.2176 164.1172 0001210  65.6727 346.6775 15.73228160  1306
STARLINK-5014           
1 53926U 22119AS  22285.91667824 -.00034797  00000+0 -24429-3 0  9997
2 53926  53.2175 164.1077 0000770 109.7006 307.4202 15.73224813  1301
STARLINK-5008           
1 53927U 22119AT  22285.91667824 -.00032018  00000+0 -22436-3 0  9998
2 53927  53.2175 164.1096 0001122  86.8401 329.0892 15.73223257  1305
STARLINK-5009           
1 53928U 22119AU  22285.91667824 -.00049590  00000+0 -35048-3 0  9995
2 53928  53.2175 164.1066 0001363  89.9312 327.7815 15.73233939  1303
STARLINK-5018           
1 53929U 22119AV  22285.91667824  .00006771  00000+0  52629-4 0  9993
2 53929  53.2174 164.1110 0001975  29.5243  25.8196 15.73199610  1300
STARLINK-5010           
1 53930U 22119AW  22285.91667824 -.00041915  00000+0 -29535-3 0  9995
2 53930  53.2176 164.1041 0001111  90.0291 328.8779 15.73229264  1307
STARLINK-5015           
1 53931U 22119AX  22285.91667824  .00000106  00000+0  51689-5 0  9998
2 53931  53.2174 164.1011 0001203  48.6626  11.4484 15.73203656  1301
STARLINK-4772           
1 53932U 22119AY  22285.91667824 -.00014132  00000+0 -96387-4 0  9998
2 53932  53.2175 164.1032 0001577  61.6138 357.8971 15.73212304  1301
STARLINK-4782           
1 53933U 22119AZ  22285.91667824 -.00001901  00000+0 -91355-5 0  9990
2 53933  53.2175 164.1048 0001027  91.8669 326.4553 15.73204889  1300
STARLINK-4775           
1 53934U 22119BA  22285.91667824 -.00066749  00000+0 -47406-3 0  9998
2 53934  53.2175 164.1006 0001042  78.1206 342.5679 15.73244516  1306
STARLINK-5000           
1 53935U 22119BB  22285.91667824 -.00038322  00000+0 -26956-3 0  9992
2 53935  53.2175 164.0978 0001273  91.1825 330.7061 15.73226962  1301
STARLINK-4791           
1 53936U 22119BC  22285.91667824 -.00044683  00000+0 -31523-3 0  9996
2 53936  53.2175 164.0994 0001105  89.9855 331.3056 15.73230746  1308
STARLINK-4765           
1 53937U 22119BD  22285.91667824 -.00008469  00000+0 -55958-4 0  9998
2 53937  53.2176 164.0964 0001698  42.6467  19.8465 15.73208784  1308
2022-118C               
1 53942U 22118C   22285.95524949  .00043233  25565-5  53227-3 0  9998
2 53942  97.5248 292.5524 0269300 301.4642  56.0531 15.27603600  2742
YAOGAN-36 01A           
1 53943U 22120A   22285.81611471  .00014877  00000+0  58952-3 0  9997
2 53943  34.9990  83.0416 0007269  59.8284  77.8679 15.24551848  2483
CZ-2D DEB               
1 53944U 22120B   22285.80980940  .00039431  00000+0  15077-2 0  9990
2 53944  34.9978  82.9964 0008043  49.5765  86.2561 15.25569982  2480
